OOV-CUBE (TUBSAT-30)    
1 60240U 24128F   26032.94891905  .00002603  00000+0  20705-3 0  9994
2 60240  61.9970 336.8877 0056848 104.7946 255.9453 15.01983595 85798
